GLOBALSTAR M057         
1 25943U 99058A   25273.63080219 -.00000083  00000+0  94333-4 0  9999
2 25943  52.0000  48.9516 0002219 213.8924 146.1784 12.24827210179858
GLOBALSTAR M059         
1 25944U 99058B   25273.56443509 -.00000045  00000+0  51102-3 0  9991
2 25944  52.0012 282.0946 0000358 127.9605  18.3252 11.99988574586699
GLOBALSTAR M056         
1 25945U 99058C   25273.47831094 -.00000122  00000+0 -40711-3 0  9993
2 25945  51.9955 281.5870 0001118  35.9983 120.4537 12.04779238175312
GLOBALSTAR M031         
1 25946U 99058D   25273.48266815 -.00000028  00000+0  63900-3 0  9997
2 25946  51.9950 167.5967 0002079  44.9645 125.0120 12.16040152177354
GLOBALSTAR M039         
1 25961U 99062A   25273.47434814 -.00000073  00000+0  16974-3 0  9993
2 25961  51.9853 308.0327 0002483 214.6840 145.3865 12.62332950193515
GLOBALSTAR M034         
1 25962U 99062B   25273.53352810 -.00000024  00000+0  90918-3 0  9992
2 25962  51.9854  97.5449 0013323 238.2746 136.2419 11.79448828150824
GLOBALSTAR M029         
1 25963U 99062C   25273.63089824 -.00000082  00000+0  51562-4 0  9993
2 25963  51.9794 169.8586 0002578 344.0654  18.6823 11.99901461181787
GLOBALSTAR M061         
1 25964U 99062D   25273.47034255 -.00000079  00000+0  16040-4 0  9992
2 25964  51.9789 283.1459 0005903 161.6169 351.8631 11.76777035133576
